NORAD_CAT_ID,OBJECT_NAME,OBJECT_TYPE,EPOCH,MEAN_MOTION,ECCENTRICITY,INCLINATION,RA_OF_ASC_NODE,ARG_OF_PERICENTER,MEAN_ANOMALY,BSTAR,MEAN_MOTION_DOT,MEAN_MOTION_DDOT,TLE_LINE0,TLE_LINE1,TLE_LINE2,SEMIMAJOR_AXIS,PERIOD,APOGEE,PERIGEE,DECAYED
53391.0,STARLINK-4521,PAYLOAD,2022-11-12 20:33:36,15.08863713,0.0002096,53.2159,168.7525,42.1195,317.9958,0.00068494,0.00010637,0.0,0 STARLINK-4521,1 53391U 22097D   22316.85667209  .00010637  00000-0  68494-3 0  9999,2 53391  53.2159 168.7525 0002096  42.1195 317.9958 15.08863713 15573,6917.808000000001,95.436,541.123,538.2230000000002,0.0
53391.0,STARLINK-4521,PAYLOAD,2022-11-13 01:19:45,15.08862685,0.0002091,53.2158,167.8605,42.0018,318.1135,0.00047298,7.252e-05,0.0,0 STARLINK-4521,1 53391U 22097D   22317.05538970  .00007252  00000-0  47298-3 0  9992,2 53391  53.2158 167.8605 0002091  42.0018 318.1135 15.08862685 15600,6917.811,95.436,541.123,538.23,0.0
53391.0,STARLINK-4521,PAYLOAD,2022-11-13 18:49:00,15.08843373,0.0002009,53.2163,164.5893,44.64100000000001,315.4743,-6.2403e-05,-1.281e-05,0.0,0 STARLINK-4521,1 53391U 22097D   22317.78403137 -.00001281  00000-0 -62403-4 0  9992,2 53391  53.2163 164.5893 0002009  44.6410 315.4743 15.08843373 15060,6917.87,95.437,541.125,538.345,0.0
53391.0,STARLINK-4521,PAYLOAD,2022-11-13 23:35:09,15.0883966,0.0002063,53.2166,163.6975,40.5735,319.541,-8.6783e-05,-1.669e-05,0.0,0 STARLINK-4521,1 53391U 22097D   22317.98275345 -.00001669  00000-0 -86783-4 0  9999,2 53391  53.2166 163.6975 0002063  40.5735 319.5410 15.08839660 15744,6917.880999999999,95.438,541.174,538.319,0.0
53391.0,STARLINK-4521,PAYLOAD,2022-11-14 17:04:24,15.08843393,0.000211,53.2165,160.4259,44.2221,315.894,4.8407e-05,4.82e-06,0.0,0 STARLINK-4521,1 53391U 22097D   22318.71139286  .00000482  00000-0  48407-4 0  9995,2 53391  53.2165 160.4259 0002110  44.2221 315.8940 15.08843393 15854,6917.87,95.437,541.195,538.275,0.0
53391.0,STARLINK-4521,PAYLOAD,2022-11-14 23:25:56,15.08846788,0.0002102,53.2171,159.2372,42.6767,317.4389,2.9995e-05,1.89e-06,0.0,0 STARLINK-4521,1 53391U 22097D   22318.97635069  .00000189  00000-0  29995-4 0  9998,2 53391  53.2171 159.2372 0002102  42.6767 317.4389 15.08846788 15240,6917.86,95.437,541.179,538.271,0.0
53391.0,STARLINK-4521,PAYLOAD,2022-11-15 01:01:19,15.08846457,0.0002102,53.217,158.9396,43.1927,316.9229,2.7376e-05,1.48e-06,0.0,0 STARLINK-4521,1 53391U 22097D   22319.04259060  .00000148  00000-0  27376-4 0  9996,2 53391  53.2170 158.9396 0002102  43.1927 316.9229 15.08846457 15908,6917.861,95.437,541.18,538.2719999999998,0.0
53391.0,STARLINK-4521,PAYLOAD,2022-11-15 15:19:48,15.0884003,0.0002101,53.2168,156.2633,42.2243,317.8911,0.00018149,2.601e-05,0.0,0 STARLINK-4521,1 53391U 22097D   22319.63875390  .00002601  00000-0  18149-3 0  9994,2 53391  53.2168 156.2633 0002101  42.2243 317.8911 15.08840030 15347,6917.88,95.438,541.1990000000002,538.2919999999998,0.0
53391.0,STARLINK-4521,PAYLOAD,2022-11-15 20:05:58,15.08833373,0.0002083,53.2168,155.371,41.184,318.9309,6.3468e-05,7.22e-06,0.0,0 STARLINK-4521,1 53391U 22097D   22319.83747771  .00000722  00000-0  63468-4 0  9994,2 53391  53.2168 155.3710 0002083  41.1840 318.9309 15.08833373 16024,6917.901,95.438,541.207,538.325,0.0
53391.0,STARLINK-4521,PAYLOAD,2022-11-16 00:52:07,15.0883068,0.0002066,53.2176,154.4791,41.2496,318.8652,7.6108e-05,9.23e-06,0.0,0 STARLINK-4521,1 53391U 22097D   22320.03620110  .00000923  00000-0  76108-4 0  9993,2 53391  53.2176 154.4791 0002066  41.2496 318.8652 15.08830680 15400,6917.909000000002,95.438,541.203,538.345,0.0
53391.0,STARLINK-4521,PAYLOAD,2022-11-16 13:35:12,15.08836992,0.000208,53.2177,152.1001,41.3021,318.8128,3.411e-05,2.55e-06,0.0,0 STARLINK-4521,1 53391U 22097D   22320.56612016  .00000255  00000-0  34110-4 0  9992,2 53391  53.2177 152.1001 0002080  41.3021 318.8128 15.08836992 16132,6917.89,95.438,541.194,538.316,0.0
53391.0,STARLINK-4521,PAYLOAD,2022-11-16 19:56:45,15.08838523,0.0002097,53.2177,150.9108,41.5591,318.5561,3.1573000000000004e-05,2.14e-06,0.0,0 STARLINK-4521,1 53391U 22097D   22320.83107888  .00000214  00000-0  31573-4 0  9993,2 53391  53.2177 150.9108 0002097  41.5591 318.5561 15.08838523 16172,6917.885,95.438,541.201,538.299,0.0
53391.0,STARLINK-4521,PAYLOAD,2022-11-17 13:25:59,15.08841116,0.0002097,53.2177,147.64,42.5659,317.5496,4.7934e-05,4.75e-06,0.0,0 STARLINK-4521,1 53391U 22097D   22321.55971715  .00000475  00000-0  47934-4 0  9998,2 53391  53.2177 147.6400 0002097  42.5659 317.5496 15.08841116 16286,6917.877,95.437,541.193,538.2909999999998,0.0
53391.0,STARLINK-4521,PAYLOAD,2022-11-17 19:47:32,15.08838328,0.0002125,53.2177,146.4506,43.3264,316.7895,0.00013179,1.810000000000001e-05,0.0,0 STARLINK-4521,1 53391U 22097D   22321.82467653  .00001810  00000-0  13179-3 0  9996,2 53391  53.2177 146.4506 0002125  43.3264 316.7895 15.08838328 16323,6917.885,95.438,541.221,538.28,0.0
53391.0,STARLINK-4521,PAYLOAD,2022-11-17 22:58:18,15.08839366,0.0002144,53.2177,145.8558,43.195,316.921,0.00013636,1.883e-05,0.0,0 STARLINK-4521,1 53391U 22097D   22321.95715611  .00001883  00000-0  13636-3 0  9998,2 53391  53.2177 145.8558 0002144  43.1950 316.9210 15.08839366 15699,6917.882,95.438,541.231,538.264,0.0
53391.0,STARLINK-4521,PAYLOAD,2022-11-18 11:41:23,15.08843018,0.0002155,53.2178,143.4768,44.3957,315.7208,0.00013277,1.826e-05,0.0,0 STARLINK-4521,1 53391U 22097D   22322.48707400  .00001826  00000-0  13277-3 0  9992,2 53391  53.2178 143.4768 0002155  44.3957 315.7208 15.08843018 16424,6917.871,95.437,541.227,538.245,0.0
53391.0,STARLINK-4521,PAYLOAD,2022-11-19 05:10:38,15.0882952,0.0002199,53.2175,140.2056,44.0425,316.0742,-2.5686e-05,-6.97e-06,0.0,0 STARLINK-4521,1 53391U 22097D   22323.21572739 -.00000697  00000-0 -25686-4 0  9994,2 53391  53.2175 140.2056 0002199  44.0425 316.0742 15.08829520 15889,6917.9119999999975,95.438,541.299,538.256,0.0
53391.0,STARLINK-4521,PAYLOAD,2022-11-19 17:53:43,15.0883391,0.0002108,53.2183,137.8272,44.0543,316.0617,-3.4881e-05,-8.43e-06,0.0,0 STARLINK-4521,1 53391U 22097D   22323.74564646 -.00000843  00000-0 -34881-4 0  9990,2 53391  53.2183 137.8272 0002108  44.0543 316.0617 15.08833910 16612,6917.899,95.438,541.222,538.306,0.0
53391.0,STARLINK-4521,PAYLOAD,2022-11-20 05:01:25,15.08837252,0.0002179,53.2182,135.7457,44.9039,315.2129,-3.5064e-06,-3.44e-06,0.0,0 STARLINK-4521,1 53391U 22097D   22324.20932526 -.00000344  00000-0 -35064-5 0  9999,2 53391  53.2182 135.7457 0002179  44.9039 315.2129 15.08837252 16038,6917.889,95.438,541.261,538.246,0.0
53391.0,STARLINK-4521,PAYLOAD,2022-11-20 11:22:58,15.08837508,0.0002166,53.2182,134.5566,44.6554,315.4613,2.7074e-07,-2.84e-06,0.0,0 STARLINK-4521,1 53391U 22097D   22324.47428566 -.00000284  00000-0  27074-6 0  9997,2 53391  53.2182 134.5566 0002166  44.6554 315.4613 15.08837508 16721,6917.888000000001,95.438,541.251,538.255,0.0
53391.0,STARLINK-4521,PAYLOAD,2022-11-20 17:44:30,15.08840125,0.0002237,53.2181,133.36700000000002,46.4083,313.7095,4.2819e-06,-2.2e-06,0.0,0 STARLINK-4521,1 53391U 22097D   22324.73924441 -.00000220  00000-0  42819-5 0  9992,2 53391  53.2181 133.3670 0002237  46.4083 313.7095 15.08840125 16767,6917.88,95.438,541.293,538.197,0.0
53391.0,STARLINK-4521,PAYLOAD,2022-11-21 11:13:45,15.08836678,0.0002206,53.218,130.096,45.4517,314.6655,0.00016994,2.417e-05,0.0,0 STARLINK-4521,1 53391U 22097D   22325.46788578  .00002417  00000-0  16994-3 0  9994,2 53391  53.2180 130.0960 0002206  45.4517 314.6655 15.08836678 16220,6917.891,95.438,541.2819999999998,538.229,0.0
53391.0,STARLINK-4521,PAYLOAD,2022-11-21 17:35:17,15.08840424,0.0002209,53.218,128.9064,46.6783,313.4393,0.00018457,2.65e-05,0.0,0 STARLINK-4521,1 53391U 22097D   22325.73284429  .00002650  00000-0  18457-3 0  9995,2 53391  53.2180 128.9064 0002209  46.6783 313.4393 15.08840424 16918,6917.879,95.438,541.2719999999998,538.216,0.0
53391.0,STARLINK-4521,PAYLOAD,2022-11-21 22:21:27,15.08842744,0.0002221,53.2181,128.0145,46.5561,313.5615,0.00017904,2.563e-05,0.0,0 STARLINK-4521,1 53391U 22097D   22325.93156345  .00002563  00000-0  17904-3 0  9991,2 53391  53.2181 128.0145 0002221  46.5561 313.5615 15.08842744 16945,6917.871999999999,95.437,541.273,538.201,0.0
53391.0,STARLINK-4521,PAYLOAD,2022-11-22 17:26:04,15.088525199999998,0.0002287,53.2171,124.4458,47.7294,312.3892,0.00026291,3.9e-05,0.0,0 STARLINK-4521,1 53391U 22097D   22326.72643970  .00003900  00000-0  26291-3 0  9999,2 53391  53.2171 124.4458 0002287  47.7294 312.3892 15.08852520 16418,6917.842,95.437,541.289,538.125,0.0
53391.0,STARLINK-4521,PAYLOAD,2022-11-23 10:55:19,15.0883774,0.0002279,53.2177,121.1752,48.8261,311.2928,2.6261e-05,1.3e-06,0.0,0 STARLINK-4521,1 53391U 22097D   22327.45508785  .00000130  00000-0  26261-4 0  9994,2 53391  53.2177 121.1752 0002279  48.8261 311.2928 15.08837740 16529,6917.887,95.438,541.3290000000002,538.1759999999998,0.0
53391.0,STARLINK-4521,PAYLOAD,2022-11-23 17:16:51,15.08841161,0.0002292,53.2178,119.9858,49.139,310.9801,4.5271e-05,4.32e-06,0.0,0 STARLINK-4521,1 53391U 22097D   22327.72004466  .00000432  00000-0  45271-4 0  9998,2 53391  53.2178 119.9858 0002292  49.1390 310.9801 15.08841161 17219,6917.877,95.437,541.327,538.156,0.0
53391.0,STARLINK-4521,PAYLOAD,2022-11-24 10:46:05,15.08847639,0.0002293,53.2182,116.7147,48.14100000000001,311.9778,5.8387e-05,6.41e-06,0.0,0 STARLINK-4521,1 53391U 22097D   22328.44867860  .00000641  00000-0  58387-4 0  9997,2 53391  53.2182 116.7147 0002293  48.1410 311.9778 15.08847639 16672,6917.857,95.437,541.308,538.136,0.0
53391.0,STARLINK-4521,PAYLOAD,2022-11-24 18:43:01,15.08852941,0.0002275,53.2181,115.2281,47.3267,312.7916,5.6498e-05,6.11e-06,0.0,0 STARLINK-4521,1 53391U 22097D   22328.77987381  .00000611  00000-0  56498-4 0  9992,2 53391  53.2181 115.2281 0002275  47.3267 312.7916 15.08852941 17378,6917.840999999999,95.437,541.28,538.132,0.0
